O3B MPOWER F9           
1 64866U 25153A   26116.60413794 -.00000027  00000+0  00000+0 0  9994
2 64866   0.0540  15.2001 0005566  45.3941 299.4598  5.00116075 16972
O3B MPOWER F10          
1 64867U 25153B   26116.96981924 -.00000027  00000+0  00000+0 0  9999
2 64867   0.0539  10.2429 0002808 262.5298  87.1938  5.00114883 19477
